[{"OBJECT_NAME":"STARLINK-30069","OBJECT_ID":"2023-079M","EPOCH":"2026-03-08T11:34:15.947328","MEAN_MOTION":15.26726881,"ECCENTRICITY":4.69e-5,"INCLINATION":42.9986,"RA_OF_ASC_NODE":110.4464,"ARG_OF_PERICENTER":272.6695,"MEAN_ANOMALY":87.4103,"EPHEMERIS_TYPE":0,"CLASSIFICATION_TYPE":"U","NORAD_CAT_ID":56834,"ELEMENT_SET_NO":999,"REV_AT_EPOCH":15274,"BSTAR":-8.0472e-5,"MEAN_MOTION_DOT":-2.416e-5,"MEAN_MOTION_DDOT":0},{"OBJECT_NAME":"STARLINK-32670","OBJECT_ID":"2024-229U","EPOCH":"2026-03-09T22:55:40.443744","MEAN_MOTION":15.27595716,"ECCENTRICITY":0.00012149,"INCLINATION":43.0008,"RA_OF_ASC_NODE":269.071,"ARG_OF_PERICENTER":347.935,"MEAN_ANOMALY":12.1472,"EPHEMERIS_TYPE":0,"CLASSIFICATION_TYPE":"U","NORAD_CAT_ID":62210,"ELEMENT_SET_NO":999,"REV_AT_EPOCH":7060,"BSTAR":0.00093602336,"MEAN_MOTION_DOT":0.00025597,"MEAN_MOTION_DDOT":0}]
